JILIN-1 GAOFEN 3A       
1 44312U 19032C   26068.74542089  .00016264  00000+0  55381-3 0  9993
2 44312  44.9746 183.2861 0002618 111.2900 248.8263 15.30271310372592
STARLINK-34178          
1 64096U 25110A   26068.26033152  .00017919  00000+0  61580-3 0  9997
2 64096  53.1610  28.9781 0001004 100.0914 260.0200 15.30192888 45811
